{"TopicId":188035,"ForumId":16,"TopicTitle":"\u0026quot;Set Orbit\u0026quot; for perfect relays?","CreatedByName":"Motokid600","CreatedById":66349,"CreatedDateTime":"2019-09-06T20:17:33Z","PageNum":1,"Articles":[{"CreatedByName":"Motokid600","CreatedById":66349,"CreatedDateTime":"2019-09-06T20:17:33Z","Content":"\n\u003Cp\u003E\nI swear the \u0022Set Orbit\u0022 function has changed in the past few updates. Been having some trouble with it trying to set polar satellites at equal intervals from each other. EQ sats I can seem to manage.\n\u003C/p\u003E\n\u003Cp\u003E\nSMA\n\u003C/p\u003E\n\u003Cp\u003E\nEccentricity\n\u003C/p\u003E\n\u003Cp\u003E\nInclination\n\u003C/p\u003E\n\u003Cp\u003E\nMNA\n\u003C/p\u003E\n\u003Cp\u003E\nOBT\n\u003C/p\u003E\n\u003Cp\u003E\nLAN\n\u003C/p\u003E\n\u003Cp\u003E\nArg \u003Cabbr title=\u0022Periapsis\u0022\u003EPe\u003C/abbr\u003E ( this is new to me )\n\u003C/p\u003E\n\u003Cp\u003E\nI set my SMA for the orbital period I want and then if I recall correctly I use LAN to set the angles for each sat. 0,90,180,270 for four. And that works for EQ sats. But the moment I set inclination to 90 things get wonky. Sats get put on different planes relative to eacother and in retrograde orbits. How exactly can I use this tool to fix them? Truth be told I dont know what MNA, OBT ( orbit? ) or LAN means. Nor that new setting below.\n\u003C/p\u003E\n\u003Cp\u003E\n\u00A0\n\u003C/p\u003E\n"},{"CreatedByName":"Pecan","CreatedById":96332,"CreatedDateTime":"2019-09-06T20:55:41Z","Content":"\n\u003Cblockquote class=\u0022ipsQuote\u0022 data-ipsquote=\u0022\u0022 data-ipsquote-contentapp=\u0022forums\u0022 data-ipsquote-contentclass=\u0022forums_Topic\u0022 data-ipsquote-contentcommentid=\u00223668002\u0022 data-ipsquote-contentid=\u0022188035\u0022 data-ipsquote-contenttype=\u0022forums\u0022 data-ipsquote-timestamp=\u00221567801053\u0022 data-ipsquote-userid=\u002266349\u0022 data-ipsquote-username=\u0022Motokid600\u0022\u003E\n\u003Cdiv class=\u0022ipsQuote_citation\u0022\u003E\n34 minutes ago, Motokid600 said:\n\u003C/div\u003E\n\u003Cdiv class=\u0022ipsQuote_contents\u0022\u003E\n\u003Cp\u003E\n\u0022Set Orbit\u0022 function\n\u003C/p\u003E\n\u003C/div\u003E\n\u003C/blockquote\u003E\n\u003Cp\u003E\nHuh?\n\u003C/p\u003E\n\u003Cp\u003E\nThe wiki (\u003Ca href=\u0022https://wiki.kerbalspaceprogram.com/wiki/Orbit\u0022 rel=\u0022external nofollow\u0022\u003Ehttps://wiki.kerbalspaceprogram.com/wiki/Orbit\u003C/a\u003E) does a good job of explaining orbital abbreviations (well done, whoever wrote it).\n\u003C/p\u003E\n"},{"CreatedByName":"Cavscout74","CreatedById":181783,"CreatedDateTime":"2019-09-06T21:00:41Z","Content":"\n\u003Cp\u003E\nFor polar orbits, you would want all the relays to have identical LAN (Longitude of Ascending Node).\u00A0\u00A0 It\u0027s either MNA or Argument of Periapsis you want to change for polar relays, but I can\u0027t remember which off the top of my head\n\u003C/p\u003E\n\u003Cspan class=\u0022ipsType_reset ipsType_medium ipsType_light\u0022 data-excludequote=\u0022\u0022\u003E\n\u003Cstrong\u003EEdited \u003Ctime datetime=\u00222019-09-06T21:00:58Z\u0022 title=\u002209/06/2019 09:00  PM\u0022 data-short=\u00224 yr\u0022\u003ESeptember 6, 2019\u003C/time\u003E by Cavscout74\u003C/strong\u003E\n\u003C/span\u003E\n"},{"CreatedByName":"Motokid600","CreatedById":66349,"CreatedDateTime":"2019-09-06T21:02:59Z","Content":"\n\u003Cp\u003E\nAh okay so its the MNA ive been manipulating MNA to get the spacing right, but that alone is setting sats in random orbits. Thank you ill try messing with LAN/ArgPe\n\u003C/p\u003E\n"},{"CreatedByName":"Snark","CreatedById":125662,"CreatedDateTime":"2019-09-10T03:34:30Z","Content":"\n\u003Cblockquote class=\u0022ipsQuote\u0022 data-ipsquote=\u0022\u0022 data-ipsquote-contentapp=\u0022forums\u0022 data-ipsquote-contentclass=\u0022forums_Topic\u0022 data-ipsquote-contentcommentid=\u00223668042\u0022 data-ipsquote-contentid=\u0022188035\u0022 data-ipsquote-contenttype=\u0022forums\u0022 data-ipsquote-timestamp=\u00221567803779\u0022 data-ipsquote-userid=\u002266349\u0022 data-ipsquote-username=\u0022Motokid600\u0022\u003E\n\u003Cdiv class=\u0022ipsQuote_citation\u0022\u003E\nOn 9/6/2019 at 2:02 PM, Motokid600 said:\n\u003C/div\u003E\n\u003Cdiv class=\u0022ipsQuote_contents\u0022\u003E\n\u003Cp\u003E\nAh okay so its the MNA ive been manipulating MNA to get the spacing right, but that alone is setting sats in random orbits. Thank you ill try messing with LAN/ArgPe\n\u003C/p\u003E\n\u003C/div\u003E\n\u003C/blockquote\u003E\n\u003Cp\u003E\nIncidentally, \u0022argument of periapsis\u0022 is basically irrelevant if they\u0027re in circular orbits.\u00A0 It determines the orientation of the orbit, if it\u0027s an ellipse (one way to illustrate it is to picture an equatorial elliptical orbit-- \u0022argument of periapsis\u0022 determines what longitude the periapsis falls at).\n\u003C/p\u003E\n\u003Cp\u003E\nMNA is \u0022mean anomaly at epoch\u0022 and is the parameter that specifies \u003Cem\u003E\u003Cu\u003Ewhere in the orbit a satellite is, at a given time\u003C/u\u003E\u003C/em\u003E.\u00A0 So if you want to have a family of satellites that all have exactly the same orbit but are just spaced at different points along that orbit, you\u0027d want to give them all identical parameters but vary the MNA.\n\u003C/p\u003E\n"},{"CreatedByName":"Zhetaan","CreatedById":125721,"CreatedDateTime":"2019-09-10T12:21:39Z","Content":"\n\u003Cblockquote class=\u0022ipsQuote\u0022 data-ipsquote=\u0022\u0022 data-ipsquote-contentapp=\u0022forums\u0022 data-ipsquote-contentclass=\u0022forums_Topic\u0022 data-ipsquote-contentcommentid=\u00223668042\u0022 data-ipsquote-contentid=\u0022188035\u0022 data-ipsquote-contenttype=\u0022forums\u0022 data-ipsquote-timestamp=\u00221567803779\u0022 data-ipsquote-userid=\u002266349\u0022 data-ipsquote-username=\u0022Motokid600\u0022\u003E\n\u003Cdiv class=\u0022ipsQuote_citation\u0022\u003E\nOn 9/6/2019 at 5:02 PM, Motokid600 said:\n\u003C/div\u003E\n\u003Cdiv class=\u0022ipsQuote_contents\u0022\u003E\n\u003Cp\u003E\nAh okay so its the MNA ive been manipulating MNA to get the spacing right, but that alone is setting sats in random orbits.\n\u003C/p\u003E\n\u003C/div\u003E\n\u003C/blockquote\u003E\n\u003Cp\u003E\nHow have you been manipulating MNA?\u00A0 Are you using radians or degrees?\u00A0 I am fairly certain that KSP uses radians for MNA, so you\u0027ll want to use numbers ranging from 0 to 2\u03C0 (approximately equivalent to 6.2832).\u00A0 For a constellation of four satellites, that would mean 0, 1.5708. 3.1416, and 4.7124.\n\u003C/p\u003E\n\u003Cspan class=\u0022ipsType_reset ipsType_medium ipsType_light\u0022 data-excludequote=\u0022\u0022\u003E\n\u003Cstrong\u003EEdited \u003Ctime datetime=\u00222019-09-10T12:24:41Z\u0022 title=\u002209/10/2019 12:24  PM\u0022 data-short=\u00224 yr\u0022\u003ESeptember 10, 2019\u003C/time\u003E by Zhetaan\u003C/strong\u003E\n\u003C/span\u003E\n"}]}